[{"OBJECT_NAME":"LEMUR-2-GRAM-E-SUE","OBJECT_ID":"2026-004H","EPOCH":"2026-03-09T22:14:14.369280","MEAN_MOTION":14.87820333,"ECCENTRICITY":0.00087695,"INCLINATION":97.7976,"RA_OF_ASC_NODE":69.0865,"ARG_OF_PERICENTER":107.9643,"MEAN_ANOMALY":252.2531,"EPHEMERIS_TYPE":0,"CLASSIFICATION_TYPE":"U","NORAD_CAT_ID":67370,"ELEMENT_SET_NO":999,"REV_AT_EPOCH":853,"BSTAR":0.00070013244,"MEAN_MOTION_DOT":6.35e-5,"MEAN_MOTION_DDOT":0},{"OBJECT_NAME":"NOAA 17 DEB","OBJECT_ID":"2002-032AY","EPOCH":"2026-03-06T23:21:22.030560","MEAN_MOTION":14.89664022,"ECCENTRICITY":0.00164423,"INCLINATION":98.731,"RA_OF_ASC_NODE":72.2356,"ARG_OF_PERICENTER":98.896,"MEAN_ANOMALY":261.4117,"EPHEMERIS_TYPE":0,"CLASSIFICATION_TYPE":"U","NORAD_CAT_ID":48715,"ELEMENT_SET_NO":999,"REV_AT_EPOCH":25823,"BSTAR":0.0058392427,"MEAN_MOTION_DOT":0.0005635,"MEAN_MOTION_DDOT":0}]
